{
    "links": {
        "self": "http://www.neowsapp.com/rest/v1/neo/3413164?api_key=iIulBulltgU6a56xZRHN4H3l9WmuAYTsLGpBGhQ2"
    },
    "id": "3413164",
    "neo_reference_id": "3413164",
    "name": "(2008 LC2)",
    "designation": "2008 LC2",
    "nasa_jpl_url": "http://ssd.jpl.nasa.gov/sbdb.cgi?sstr=3413164",
    "absolute_magnitude_h": 23.8,
    "estimated_diameter": {
        "kilometers": {
            "estimated_diameter_min": 0.046190746,
            "estimated_diameter_max": 0.1032856481
        },
        "meters": {
            "estimated_diameter_min": 46.1907460282,
            "estimated_diameter_max": 103.2856480504
        },
        "miles": {
            "estimated_diameter_min": 0.0287015901,
            "estimated_diameter_max": 0.0641787064
        },
        "feet": {
            "estimated_diameter_min": 151.544447199,
            "estimated_diameter_max": 338.8636855496
        }
    },
    "is_potentially_hazardous_asteroid": false,
    "close_approach_data": [
        {
            "close_approach_date": "2007-06-12",
            "close_approach_date_full": "2007-Jun-12 15:10",
            "epoch_date_close_approach": 1181661000000,
            "relative_velocity": {
                "kilometers_per_second": "19.5929389166",
                "kilometers_per_hour": "70534.5800995915",
                "miles_per_hour": "43827.4450624379"
            },
            "miss_distance": {
                "astronomical": "0.0226780673",
                "lunar": "8.8217681797",
                "kilometers": "3392590.563796651",
                "miles": "2108058.0243937438"
            },
            "orbiting_body": "Earth"
        },
        {
            "close_approach_date": "2008-06-13",
            "close_approach_date_full": "2008-Jun-13 14:22",
            "epoch_date_close_approach": 1213366920000,
            "relative_velocity": {
                "kilometers_per_second": "17.9819575692",
                "kilometers_per_hour": "64735.0472490001",
                "miles_per_hour": "40223.840886469"
            },
            "miss_distance": {
                "astronomical": "0.0762629001",
                "lunar": "29.6662681389",
                "kilometers": "11408767.414982787",
                "miles": "7089079.3466929806"
            },
            "orbiting_body": "Earth"
        },
        {
            "close_approach_date": "2009-06-14",
            "close_approach_date_full": "2009-Jun-14 21:36",
            "epoch_date_close_approach": 1245015360000,
            "relative_velocity": {
                "kilometers_per_second": "16.5632087422",
                "kilometers_per_hour": "59627.5514718739",
                "miles_per_hour": "37050.2416353985"
            },
            "miss_distance": {
                "astronomical": "0.1453086119",
                "lunar": "56.5250500291",
                "kilometers": "21737858.832896653",
                "miles": "13507279.1379056914"
            },
            "orbiting_body": "Earth"
        }
    ],
    "orbital_data": {
        "orbit_id": "6",
        "orbit_determination_date": "2017-04-06 09:03:18",
        "first_observation_date": "2008-06-03",
        "last_observation_date": "2008-06-04",
        "data_arc_in_days": 1,
        "observations_used": 8,
        "orbit_uncertainty": "9",
        "minimum_orbit_intersection": ".0223858",
        "jupiter_tisserand_invariant": "5.845",
        "epoch_osculation": "2454621.5",
        "eccentricity": ".5157266624058312",
        "semi_major_axis": "1.008036134252084",
        "inclination": "25.0119208452368",
        "ascending_node_longitude": "78.85957464210186",
        "orbital_period": "369.6686122558564",
        "perihelion_distance": ".4881650231497801",
        "perihelion_argument": "305.3764263000879",
        "aphelion_distance": "1.527907245354387",
        "perihelion_time": "2454698.255366701458",
        "mean_anomaly": "285.2521553185042",
        "mean_motion": ".9738451901640905",
        "equinox": "J2000",
        "orbit_class": {
            "orbit_class_type": "APO",
            "orbit_class_description": "Near-Earth asteroid orbits which cross the Earth’s orbit similar to that of 1862 Apollo",
            "orbit_class_range": "a (semi-major axis) > 1.0 AU; q (perihelion) < 1.017 AU"
        }
    },
    "is_sentry_object": false
}